[{"OBJECT_NAME":"STARLINK-5068","OBJECT_ID":"2023-014AJ","EPOCH":"2026-03-09T10:43:04.439424","MEAN_MOTION":14.98327616,"ECCENTRICITY":0.00033795,"INCLINATION":69.9991,"RA_OF_ASC_NODE":85.157,"ARG_OF_PERICENTER":269.503,"MEAN_ANOMALY":90.5742,"EPHEMERIS_TYPE":0,"CLASSIFICATION_TYPE":"U","NORAD_CAT_ID":55423,"ELEMENT_SET_NO":999,"REV_AT_EPOCH":17152,"BSTAR":-3.3395787e-5,"MEAN_MOTION_DOT":-4.91e-6,"MEAN_MOTION_DDOT":0},{"OBJECT_NAME":"ATLAS 28E DEB","OBJECT_ID":"1990-031F","EPOCH":"2026-03-09T23:20:22.354944","MEAN_MOTION":14.8907054,"ECCENTRICITY":0.00492653,"INCLINATION":89.9045,"RA_OF_ASC_NODE":245.9973,"ARG_OF_PERICENTER":224.0293,"MEAN_ANOMALY":135.7008,"EPHEMERIS_TYPE":0,"CLASSIFICATION_TYPE":"U","NORAD_CAT_ID":20565,"ELEMENT_SET_NO":999,"REV_AT_EPOCH":36885,"BSTAR":0.00032450895,"MEAN_MOTION_DOT":3.143e-5,"MEAN_MOTION_DDOT":0}]
